[{"OBJECT_NAME":"STARLINK-35535","OBJECT_ID":"2025-253Z","EPOCH":"2026-03-09T10:18:08.145216","MEAN_MOTION":15.27599353,"ECCENTRICITY":0.00034743,"INCLINATION":42.9996,"RA_OF_ASC_NODE":214.0608,"ARG_OF_PERICENTER":290.0123,"MEAN_ANOMALY":70.0355,"EPHEMERIS_TYPE":0,"CLASSIFICATION_TYPE":"U","NORAD_CAT_ID":66342,"ELEMENT_SET_NO":999,"REV_AT_EPOCH":2020,"BSTAR":0.0015501962,"MEAN_MOTION_DOT":0.00042673,"MEAN_MOTION_DDOT":0},{"OBJECT_NAME":"CZ-2C DEB","OBJECT_ID":"2011-030E","EPOCH":"2026-03-09T22:02:28.057920","MEAN_MOTION":15.23147202,"ECCENTRICITY":0.00216086,"INCLINATION":98.1958,"RA_OF_ASC_NODE":48.5667,"ARG_OF_PERICENTER":313.6999,"MEAN_ANOMALY":74.4133,"EPHEMERIS_TYPE":0,"CLASSIFICATION_TYPE":"U","NORAD_CAT_ID":37734,"ELEMENT_SET_NO":999,"REV_AT_EPOCH":78227,"BSTAR":0.0029824689,"MEAN_MOTION_DOT":0.00071429,"MEAN_MOTION_DDOT":0}]
